[{"OBJECT_NAME":"STARLINK-30608","OBJECT_ID":"2023-160S","EPOCH":"2026-03-09T09:31:54.077088","MEAN_MOTION":15.26739179,"ECCENTRICITY":0.00021219,"INCLINATION":43.0044,"RA_OF_ASC_NODE":79.3124,"ARG_OF_PERICENTER":278.4884,"MEAN_ANOMALY":81.5727,"EPHEMERIS_TYPE":0,"CLASSIFICATION_TYPE":"U","NORAD_CAT_ID":58091,"ELEMENT_SET_NO":999,"REV_AT_EPOCH":13290,"BSTAR":-4.584416e-5,"MEAN_MOTION_DOT":-1.49e-5,"MEAN_MOTION_DDOT":0},{"OBJECT_NAME":"LUR-1","OBJECT_ID":"2024-149AQ","EPOCH":"2026-03-09T19:05:45.284064","MEAN_MOTION":15.28658648,"ECCENTRICITY":0.00027765,"INCLINATION":97.379,"RA_OF_ASC_NODE":148.4255,"ARG_OF_PERICENTER":309.1571,"MEAN_ANOMALY":50.9421,"EPHEMERIS_TYPE":0,"CLASSIFICATION_TYPE":"U","NORAD_CAT_ID":60506,"ELEMENT_SET_NO":999,"REV_AT_EPOCH":8678,"BSTAR":0.0003298462,"MEAN_MOTION_DOT":9.121e-5,"MEAN_MOTION_DDOT":0}]
