STARLINK-30608          
1 58091U 23160S   26068.39715367 -.00001490  00000+0 -45844-4 0  9992
2 58091  43.0044  79.3124 0002121 278.4884  81.5727 15.26739179132908
LUR-1                   
1 60506U 24149AQ  26068.79566301  .00009121  00000+0  32985-3 0  9998
2 60506  97.3790 148.4255 0002777 309.1571  50.9421 15.28658648 86785
